[
  {
    "OBJECT_NAME": "ISS (ZARYA)",
    "OBJECT_ID": "1998-067A",
    "EPOCH": "2025-06-07T20:25:28.669728",
    "MEAN_MOTION": 15.50057765,
    "ECCENTRICITY": 0.0001636,
    "INCLINATION": 51.6367,
    "RA_OF_ASC_NODE": 353.3435,
    "ARG_OF_PERICENTER": 208.8299,
    "MEAN_ANOMALY": 151.26,
    "EPHEMERIS_TYPE": 0,
    "CLASSIFICATION_TYPE": "U",
    "NORAD_CAT_ID": 25544,
    "ELEMENT_SET_NO": 999,
    "REV_AT_EPOCH": 51371,
    "BSTAR": 0.00014194,
    "MEAN_MOTION_DOT": 7.67e-05,
    "MEAN_MOTION_DDOT": 0
  },
  {
    "OBJECT_NAME": "CSS (TIANHE)",
    "OBJECT_ID": "2021-035A",
    "EPOCH": "2025-06-07T20:07:26.193504",
    "MEAN_MOTION": 15.58472273,
    "ECCENTRICITY": 0.0004829,
    "INCLINATION": 41.4643,
    "RA_OF_ASC_NODE": 77.3785,
    "ARG_OF_PERICENTER": 25.7765,
    "MEAN_ANOMALY": 334.3312,
    "EPHEMERIS_TYPE": 0,
    "CLASSIFICATION_TYPE": "U",
    "NORAD_CAT_ID": 48274,
    "ELEMENT_SET_NO": 999,
    "REV_AT_EPOCH": 23469,
    "BSTAR": 0.00026767,
    "MEAN_MOTION_DOT": 0.00020738,
    "MEAN_MOTION_DDOT": 0
  },
  {
    "OBJECT_NAME": "ISS (NAUKA)",
    "OBJECT_ID": "2021-066A",
    "EPOCH": "2025-06-07T12:41:17.125152",
    "MEAN_MOTION": 15.50052846,
    "ECCENTRICITY": 0.0001592,
    "INCLINATION": 51.6365,
    "RA_OF_ASC_NODE": 354.9409,
    "ARG_OF_PERICENTER": 207.0808,
    "MEAN_ANOMALY": 153.0098,
    "EPHEMERIS_TYPE": 0,
    "CLASSIFICATION_TYPE": "U",
    "NORAD_CAT_ID": 49044,
    "ELEMENT_SET_NO": 999,
    "REV_AT_EPOCH": 21929,
    "BSTAR": 0.00014657,
    "MEAN_MOTION_DOT": 7.934e-05,
    "MEAN_MOTION_DDOT": 0
  },
  {
    "OBJECT_NAME": "CSS (WENTIAN)",
    "OBJECT_ID": "2022-085A",
    "EPOCH": "2025-06-07T01:40:05.311488",
    "MEAN_MOTION": 15.58439134,
    "ECCENTRICITY": 0.0005086,
    "INCLINATION": 41.4644,
    "RA_OF_ASC_NODE": 82.0417,
    "ARG_OF_PERICENTER": 19.365,
    "MEAN_ANOMALY": 340.738,
    "EPHEMERIS_TYPE": 0,
    "CLASSIFICATION_TYPE": "U",
    "NORAD_CAT_ID": 53239,
    "ELEMENT_SET_NO": 999,
    "REV_AT_EPOCH": 1107,
    "BSTAR": 0.00024868,
    "MEAN_MOTION_DOT": 0.00019216,
    "MEAN_MOTION_DDOT": 0
  },
  {
    "OBJECT_NAME": "CSS (MENGTIAN)",
    "OBJECT_ID": "2022-143A",
    "EPOCH": "2025-06-07T01:40:05.311488",
    "MEAN_MOTION": 15.58439134,
    "ECCENTRICITY": 0.0005086,
    "INCLINATION": 41.4644,
    "RA_OF_ASC_NODE": 82.0417,
    "ARG_OF_PERICENTER": 19.365,
    "MEAN_ANOMALY": 340.738,
    "EPHEMERIS_TYPE": 0,
    "CLASSIFICATION_TYPE": "U",
    "NORAD_CAT_ID": 54216,
    "ELEMENT_SET_NO": 999,
    "REV_AT_EPOCH": 11798,
    "BSTAR": 0.00024868,
    "MEAN_MOTION_DOT": 0.00019216,
    "MEAN_MOTION_DDOT": 0
  },
  {
    "OBJECT_NAME": "TIANZHOU-8",
    "OBJECT_ID": "2024-211A",
    "EPOCH": "2025-06-07T01:40:05.311488",
    "MEAN_MOTION": 15.58439134,
    "ECCENTRICITY": 0.0005086,
    "INCLINATION": 41.4644,
    "RA_OF_ASC_NODE": 82.0417,
    "ARG_OF_PERICENTER": 19.365,
    "MEAN_ANOMALY": 340.738,
    "EPHEMERIS_TYPE": 0,
    "CLASSIFICATION_TYPE": "U",
    "NORAD_CAT_ID": 61983,
    "ELEMENT_SET_NO": 999,
    "REV_AT_EPOCH": 3159,
    "BSTAR": 0.00024868,
    "MEAN_MOTION_DOT": 0.00019216,
    "MEAN_MOTION_DDOT": 0
  },
  {
    "OBJECT_NAME": "PROGRESS-MS 29",
    "OBJECT_ID": "2024-215A",
    "EPOCH": "2025-06-07T12:41:17.125152",
    "MEAN_MOTION": 15.50052846,
    "ECCENTRICITY": 0.0001592,
    "INCLINATION": 51.6365,
    "RA_OF_ASC_NODE": 354.9409,
    "ARG_OF_PERICENTER": 207.0808,
    "MEAN_ANOMALY": 153.0098,
    "EPHEMERIS_TYPE": 0,
    "CLASSIFICATION_TYPE": "U",
    "NORAD_CAT_ID": 62030,
    "ELEMENT_SET_NO": 999,
    "REV_AT_EPOCH": 3144,
    "BSTAR": 0.00014657,
    "MEAN_MOTION_DOT": 7.934e-05,
    "MEAN_MOTION_DDOT": 0
  },
  {
    "OBJECT_NAME": "PROGRESS-MS 30",
    "OBJECT_ID": "2025-041B",
    "EPOCH": "2025-06-07T12:41:17.125152",
    "MEAN_MOTION": 15.50052846,
    "ECCENTRICITY": 0.0001592,
    "INCLINATION": 51.6365,
    "RA_OF_ASC_NODE": 354.9409,
    "ARG_OF_PERICENTER": 207.0808,
    "MEAN_ANOMALY": 153.0098,
    "EPHEMERIS_TYPE": 0,
    "CLASSIFICATION_TYPE": "U",
    "NORAD_CAT_ID": 63129,
    "ELEMENT_SET_NO": 999,
    "REV_AT_EPOCH": 1577,
    "BSTAR": 0.00014657,
    "MEAN_MOTION_DOT": 7.934e-05,
    "MEAN_MOTION_DDOT": 0
  },
  {
    "OBJECT_NAME": "CREW DRAGON 10",
    "OBJECT_ID": "2025-049A",
    "EPOCH": "2025-06-07T12:41:17.125152",
    "MEAN_MOTION": 15.50052846,
    "ECCENTRICITY": 0.0001592,
    "INCLINATION": 51.6365,
    "RA_OF_ASC_NODE": 354.9409,
    "ARG_OF_PERICENTER": 207.0808,
    "MEAN_ANOMALY": 153.0098,
    "EPHEMERIS_TYPE": 0,
    "CLASSIFICATION_TYPE": "U",
    "NORAD_CAT_ID": 63204,
    "ELEMENT_SET_NO": 999,
    "REV_AT_EPOCH": 1297,
    "BSTAR": 0.00014657,
    "MEAN_MOTION_DOT": 7.934e-05,
    "MEAN_MOTION_DDOT": 0
  },
  {
    "OBJECT_NAME": "SOYUZ-MS 27",
    "OBJECT_ID": "2025-072A",
    "EPOCH": "2025-06-07T12:41:17.125152",
    "MEAN_MOTION": 15.50052846,
    "ECCENTRICITY": 0.0001592,
    "INCLINATION": 51.6365,
    "RA_OF_ASC_NODE": 354.9409,
    "ARG_OF_PERICENTER": 207.0808,
    "MEAN_ANOMALY": 153.0098,
    "EPHEMERIS_TYPE": 0,
    "CLASSIFICATION_TYPE": "U",
    "NORAD_CAT_ID": 63520,
    "ELEMENT_SET_NO": 999,
    "REV_AT_EPOCH": 888,
    "BSTAR": 0.00014657,
    "MEAN_MOTION_DOT": 7.934e-05,
    "MEAN_MOTION_DDOT": 0
  },
  {
    "OBJECT_NAME": "SHENZHOU-20 (SZ-20)",
    "OBJECT_ID": "2025-082A",
    "EPOCH": "2025-06-07T01:40:05.311488",
    "MEAN_MOTION": 15.58439134,
    "ECCENTRICITY": 0.0005086,
    "INCLINATION": 41.4644,
    "RA_OF_ASC_NODE": 82.0417,
    "ARG_OF_PERICENTER": 19.365,
    "MEAN_ANOMALY": 340.738,
    "EPHEMERIS_TYPE": 0,
    "CLASSIFICATION_TYPE": "U",
    "NORAD_CAT_ID": 63632,
    "ELEMENT_SET_NO": 999,
    "REV_AT_EPOCH": 23204,
    "BSTAR": 0.00024868,
    "MEAN_MOTION_DOT": 0.00019216,
    "MEAN_MOTION_DDOT": 0
  }
]