ISS (ZARYA)             
1 25544U 98067A   25158.85102627  .00007670  00000+0  14194-3 0  9993
2 25544  51.6367 353.3435 0001636 208.8299 151.2600 15.50057765513713
CSS (TIANHE)            
1 48274U 21035A   25158.83849761  .00020738  00000+0  26767-3 0  9993
2 48274  41.4643  77.3785 0004829  25.7765 334.3312 15.58472273234698
ISS (NAUKA)             
1 49044U 21066A   25158.52867043  .00007934  00000+0  14657-3 0  9990
2 49044  51.6365 354.9409 0001592 207.0808 153.0098 15.50052846219290
CSS (WENTIAN)           
1 53239U 22085A   25158.06950592  .00019216  00000+0  24868-3 0  9995
2 53239  41.4644  82.0417 0005086  19.3650 340.7380 15.58439134 11079
CSS (MENGTIAN)          
1 54216U 22143A   25158.06950592  .00019216  00000+0  24868-3 0  9996
2 54216  41.4644  82.0417 0005086  19.3650 340.7380 15.58439134117982
TIANZHOU-8              
1 61983U 24211A   25158.06950592  .00019216  00000+0  24868-3 0  9993
2 61983  41.4644  82.0417 0005086  19.3650 340.7380 15.58439134 31593
PROGRESS-MS 29          
1 62030U 24215A   25158.52867043  .00007934  00000+0  14657-3 0  9999
2 62030  51.6365 354.9409 0001592 207.0808 153.0098 15.50052846 31449
PROGRESS-MS 30          
1 63129U 25041B   25158.52867043  .00007934  00000+0  14657-3 0  9997
2 63129  51.6365 354.9409 0001592 207.0808 153.0098 15.50052846 15777
CREW DRAGON 10          
1 63204U 25049A   25158.52867043  .00007934  00000+0  14657-3 0  9999
2 63204  51.6365 354.9409 0001592 207.0808 153.0098 15.50052846 12970
SOYUZ-MS 27             
1 63520U 25072A   25158.52867043  .00007934  00000+0  14657-3 0  9996
2 63520  51.6365 354.9409 0001592 207.0808 153.0098 15.50052846  8886
SHENZHOU-20 (SZ-20)     
1 63632U 25082A   25158.06950592  .00019216  00000+0  24868-3 0  9993
2 63632  41.4644  82.0417 0005086  19.3650 340.7380 15.58439134232049
